IRIDIUM 106             
1 41917U 17003A   24343.94738738  .00000109  00000+0  31999-4 0  9992
2 41917  86.3954 320.5575 0001902  84.6831 275.4581 14.34217218413629
IRIDIUM 103             
1 41918U 17003B   24343.93469729  .00000463  00000+0  15824-3 0  9994
2 41918  86.3951 320.4639 0002441  71.1658 288.9802 14.34221116413643
IRIDIUM 109             
1 41919U 17003C   24343.94104564  .00000151  00000+0  46835-4 0  9990
2 41919  86.3955 320.5119 0002440  87.3531 272.7944 14.34217131413617
IRIDIUM 102             
1 41920U 17003D   24343.90932793  .00000769  00000+0  26759-3 0  9998
2 41920  86.3954 320.4604 0002224  90.0189 270.1261 14.34219824413699
IRIDIUM 105             
1 41921U 17003E   24343.94984002  .00000328  00000+0  11019-3 0  9997
2 41921  86.3954 288.8624 0002133  83.6679 276.4760 14.34220563415552
IRIDIUM 104             
1 41922U 17003F   24343.92201629  .00000450  00000+0  15378-3 0  9991
2 41922  86.3953 320.4894 0002834  84.8659 275.2860 14.34219183413689
IRIDIUM 114             
1 41923U 17003G   24343.92835957 -.00001002  00000+0 -36481-3 0  9993
2 41923  86.3954 320.4723 0002203  77.3044 282.8397 14.34214105413663
IRIDIUM 108             
1 41924U 17003H   24343.95664737  .00000755  00000+0  26257-3 0  9995
2 41924  86.3951 288.7732 0001973  84.5530 275.5891 14.34219749415524
